0 STTW-2
1 18922U 88014A   13280.80689351 -.00000124  00000-0  00000+0 0  2009
2 18922 014.3350 023.0076 0008414 065.9601 294.1300 01.00305410 93636
0 STTW-2
1 18922U 88014A   13282.80075787  .00000000  00000-0  10000-3 0  2022
2 18922 014.3377 022.9864 0007854 065.7396 294.3479 01.00301098 93653
0 STTW-2
1 18922U 88014A   13283.79763723 -.00000134  00000-0  00000+0 0  2018
2 18922 014.3384 022.9742 0008323 066.7121 293.3771 01.00305369 93665
0 STTW-2
1 18922U 88014A   13286.78836357 -.00000142  00000-0  00000+0 0  2024
2 18922 014.3431 022.9442 0008449 067.0752 292.9841 01.00304330 93691
0 STTW-2
1 18922U 88014A   13287.78534308 -.00000144  00000-0  00000+0 0  2039
2 18922 014.3438 022.9317 0007327 067.7811 292.2966 01.00304898 93708
0 STTW-2
1 18922U 88014A   13289.77912550 -.00000146  00000-0  00000+0 0  2042
2 18922 014.3449 022.9081 0008363 065.9608 294.1222 01.00305180 93726
0 STTW-2
1 18922U 88014A   13293.76673017 -.00000146  00000-0  00000+0 0  2059
2 18922 014.3509 022.8659 0007728 069.7104 290.3195 01.00304640 93761
0 STTW-2
1 18922U 88014A   13294.76373210 -.00000146  00000-0  00000+0 0  2063
2 18922 014.3505 022.8525 0008009 066.4513 293.6274 01.00304922 93778
